GLOBALSTAR M063         
1 26081U 00008A   24359.91004455 -.00000037  00000+0  67379-3 0  9991
2 26081  51.9925 210.5552 0004681 353.7632 137.3523 11.86167557136896
GLOBALSTAR M062         
1 26082U 00008B   24359.86240844  .00000100  00000+0  14165-2 0  9994
2 26082  51.9838 248.4166 0007790  95.4837   4.5519 12.43457041474936
GLOBALSTAR M060         
1 26083U 00008C   24359.89444813 -.00000111  00000+0 -19685-3 0  9997
2 26083  51.9987 183.6707 0004437 119.1531  27.5891 12.17652378131134
GLOBALSTAR M064         
1 26084U 00008D   24359.88893433 -.00000049  00000+0  49182-3 0  9997
2 26084  52.0050 311.4929 0001945  71.3252 288.7791 11.88527536146371
GLOBALSTAR M065         
1 31571U 07020A   24359.84979127  .00000071  00000+0  97809-3 0  9999
2 31571  51.9910  36.8901 0009911 278.4152 252.9988 12.61988671811394
GLOBALSTAR M069         
1 31573U 07020C   24359.77156955 -.00000061  00000+0  25401-3 0  9998
2 31573  51.9971 356.9934 0000432 117.5113  54.4027 12.53307596812442
GLOBALSTAR M072         
1 31574U 07020D   24359.75874645 -.00000094  00000+0 -19629-4 0  9993
2 31574  52.0085  96.9192 0000668  53.1220 110.1941 12.19803246810654
GLOBALSTAR M071         
1 31576U 07020F   24359.79825677 -.00000062  00000+0  27675-3 0  9993
2 31576  52.0083   0.5280 0001724  58.9148 112.9624 12.31891014473667
